OBJECT_NAME,OBJECT_ID,EPOCH,MEAN_MOTION,ECCENTRICITY,INCLINATION,RA_OF_ASC_NODE,ARG_OF_PERICENTER,MEAN_ANOMALY,EPHEMERIS_TYPE,CLASSIFICATION_TYPE,NORAD_CAT_ID,ELEMENT_SET_NO,REV_AT_EPOCH,BSTAR,MEAN_MOTION_DOT,MEAN_MOTION_DDOT
GEOSCAN 3 (RS92S3),2025-155T,2026-06-05T03:13:42.917664,15.34978591,.0004866,97.4538,125.8752,202.0794,158.0240,0,U,64893,999,7900,.64175E-3,.21737E-3,0
INNOSAT 3 (RS92S0),2025-155U,2026-06-05T04:31:46.124256,15.42949800,.0004232,97.4490,127.4057,183.3093,176.8127,0,U,64894,999,7911,.77908E-3,.34305E-3,0
KNACKSAT-2,1998-067XZ,2026-06-05T02:39:22.538592,15.58840087,.0010742,51.6316,355.1703,163.6532,196.4809,0,U,67683,999,1839,.69168E-3,.54547E-3,0
