GEOSCAN 3 (RS92S3)      
1 64893U 25155T   26156.13452451  .00021737  00000+0  64175-3 0  9998
2 64893  97.4538 125.8752 0004866 202.0794 158.0240 15.34978591 79004
INNOSAT 3 (RS92S0)      
1 64894U 25155U   26156.18872829  .00034305  00000+0  77908-3 0  9992
2 64894  97.4490 127.4057 0004232 183.3093 176.8127 15.42949800 79112
KNACKSAT-2              
1 67683U 98067XZ  26156.11067753  .00054547  00000+0  69168-3 0  9997
2 67683  51.6316 355.1703 0010742 163.6532 196.4809 15.58840087 18392
